[{"OBJECT_NAME":"KUIPER-00279","OBJECT_ID":"2026-030AH","EPOCH":"2026-03-05T22:15:50.559264","MEAN_MOTION":15.35245594,"ECCENTRICITY":0.00066243,"INCLINATION":51.8804,"RA_OF_ASC_NODE":237.3499,"ARG_OF_PERICENTER":36.2433,"MEAN_ANOMALY":323.9001,"EPHEMERIS_TYPE":0,"CLASSIFICATION_TYPE":"U","NORAD_CAT_ID":67795,"ELEMENT_SET_NO":999,"REV_AT_EPOCH":451,"BSTAR":0.00089677404,"MEAN_MOTION_DOT":0.0003092,"MEAN_MOTION_DDOT":0},{"OBJECT_NAME":"CREW DRAGON 12","OBJECT_ID":"2026-031A","EPOCH":"2026-03-05T18:29:09.293280","MEAN_MOTION":15.48462755,"ECCENTRICITY":0.00081443,"INCLINATION":51.6317,"RA_OF_ASC_NODE":91.7338,"ARG_OF_PERICENTER":160.7168,"MEAN_ANOMALY":199.413,"EPHEMERIS_TYPE":0,"CLASSIFICATION_TYPE":"U","NORAD_CAT_ID":67796,"ELEMENT_SET_NO":999,"REV_AT_EPOCH":55566,"BSTAR":0.00015012672,"MEAN_MOTION_DOT":7.682e-5,"MEAN_MOTION_DDOT":0},{"OBJECT_NAME":"STARLINK-36800","OBJECT_ID":"2026-032A","EPOCH":"2026-03-05T22:41:22.433856","MEAN_MOTION":15.75266405,"ECCENTRICITY":0.00011977,"INCLINATION":97.2843,"RA_OF_ASC_NODE":251.243,"ARG_OF_PERICENTER":82.9382,"MEAN_ANOMALY":277.2019,"EPHEMERIS_TYPE":0,"CLASSIFICATION_TYPE":"U","NORAD_CAT_ID":67797,"ELEMENT_SET_NO":999,"REV_AT_EPOCH":419,"BSTAR":0.0014896839,"MEAN_MOTION_DOT":0.00228879,"MEAN_MOTION_DDOT":0},{"OBJECT_NAME":"STARLINK-36798","OBJECT_ID":"2026-032B","EPOCH":"2026-03-05T22:00:01.999584","MEAN_MOTION":15.75208443,"ECCENTRICITY":0.00016846,"INCLINATION":97.2847,"RA_OF_ASC_NODE":251.2514,"ARG_OF_PERICENTER":83.9118,"MEAN_ANOMALY":205.5102,"EPHEMERIS_TYPE":0,"CLASSIFICATION_TYPE":"U","NORAD_CAT_ID":67798,"ELEMENT_SET_NO":999,"REV_AT_EPOCH":411,"BSTAR":-0.00037529362,"MEAN_MOTION_DOT":-0.0005579,"MEAN_MOTION_DDOT":0},{"OBJECT_NAME":"STARLINK-36804","OBJECT_ID":"2026-032C","EPOCH":"2026-03-05T22:38:50.123616","MEAN_MOTION":15.75271106,"ECCENTRICITY":0.00013978,"INCLINATION":97.2843,"RA_OF_ASC_NODE":251.2456,"ARG_OF_PERICENTER":78.978,"MEAN_ANOMALY":281.1643,"EPHEMERIS_TYPE":0,"CLASSIFICATION_TYPE":"U","NORAD_CAT_ID":67799,"ELEMENT_SET_NO":999,"REV_AT_EPOCH":419,"BSTAR":0.0016729444,"MEAN_MOTION_DOT":0.00257991,"MEAN_MOTION_DDOT":0},{"OBJECT_NAME":"STARLINK-36354","OBJECT_ID":"2026-032D","EPOCH":"2026-03-05T22:00:01.999584","MEAN_MOTION":15.75173596,"ECCENTRICITY":0.0001767,"INCLINATION":97.2847,"RA_OF_ASC_NODE":251.2447,"ARG_OF_PERICENTER":91.3144,"MEAN_ANOMALY":178.1208,"EPHEMERIS_TYPE":0,"CLASSIFICATION_TYPE":"U","NORAD_CAT_ID":67800,"ELEMENT_SET_NO":999,"REV_AT_EPOCH":417,"BSTAR":2.7514632e-5,"MEAN_MOTION_DOT":3.973e-5,"MEAN_MOTION_DDOT":0},{"OBJECT_NAME":"STARLINK-36773","OBJECT_ID":"2026-032E","EPOCH":"2026-03-05T22:34:15.547008","MEAN_MOTION":15.75254365,"ECCENTRICITY":0.00015562,"INCLINATION":97.2845,"RA_OF_ASC_NODE":251.2494,"ARG_OF_PERICENTER":48.2169,"MEAN_ANOMALY":311.9229,"EPHEMERIS_TYPE":0,"CLASSIFICATION_TYPE":"U","NORAD_CAT_ID":67801,"ELEMENT_SET_NO":999,"REV_AT_EPOCH":419,"BSTAR":0.0012616397,"MEAN_MOTION_DOT":0.001929,"MEAN_MOTION_DDOT":0},{"OBJECT_NAME":"STARLINK-36739","OBJECT_ID":"2026-032F","EPOCH":"2026-03-05T22:00:01.999584","MEAN_MOTION":15.75154978,"ECCENTRICITY":0.0001571,"INCLINATION":97.2843,"RA_OF_ASC_NODE":251.2681,"ARG_OF_PERICENTER":106.3714,"MEAN_ANOMALY":223.0557,"EPHEMERIS_TYPE":0,"CLASSIFICATION_TYPE":"U","NORAD_CAT_ID":67802,"ELEMENT_SET_NO":999,"REV_AT_EPOCH":417,"BSTAR":0.00021366319,"MEAN_MOTION_DOT":0.0003181,"MEAN_MOTION_DDOT":0},{"OBJECT_NAME":"STARLINK-36768","OBJECT_ID":"2026-032G","EPOCH":"2026-03-05T22:00:01.999584","MEAN_MOTION":15.75178192,"ECCENTRICITY":0.00013572,"INCLINATION":97.2843,"RA_OF_ASC_NODE":251.2377,"ARG_OF_PERICENTER":83.1433,"MEAN_ANOMALY":176.2936,"EPHEMERIS_TYPE":0,"CLASSIFICATION_TYPE":"U","NORAD_CAT_ID":67803,"ELEMENT_SET_NO":999,"REV_AT_EPOCH":417,"BSTAR":-0.00010410938,"MEAN_MOTION_DOT":-0.00015622,"MEAN_MOTION_DDOT":0},{"OBJECT_NAME":"STARLINK-36792","OBJECT_ID":"2026-032H","EPOCH":"2026-03-05T22:29:10.978368","MEAN_MOTION":15.75231649,"ECCENTRICITY":0.00013766,"INCLINATION":97.2844,"RA_OF_ASC_NODE":251.2537,"ARG_OF_PERICENTER":84.3978,"MEAN_ANOMALY":275.7445,"EPHEMERIS_TYPE":0,"CLASSIFICATION_TYPE":"U","NORAD_CAT_ID":67804,"ELEMENT_SET_NO":999,"REV_AT_EPOCH":419,"BSTAR":0.00099843649,"MEAN_MOTION_DOT":0.00151741,"MEAN_MOTION_DDOT":0},{"OBJECT_NAME":"STARLINK-36782","OBJECT_ID":"2026-032J","EPOCH":"2026-03-05T23:30:54.552384","MEAN_MOTION":15.80879256,"ECCENTRICITY":0.00025108,"INCLINATION":97.2826,"RA_OF_ASC_NODE":251.3486,"ARG_OF_PERICENTER":71.4121,"MEAN_ANOMALY":288.742,"EPHEMERIS_TYPE":0,"CLASSIFICATION_TYPE":"U","NORAD_CAT_ID":67805,"ELEMENT_SET_NO":999,"REV_AT_EPOCH":420,"BSTAR":0.0010413182,"MEAN_MOTION_DOT":0.00204674,"MEAN_MOTION_DDOT":0},{"OBJECT_NAME":"STARLINK-36389","OBJECT_ID":"2026-032K","EPOCH":"2026-03-05T22:00:01.999584","MEAN_MOTION":15.75111244,"ECCENTRICITY":0.00016094,"INCLINATION":97.2837,"RA_OF_ASC_NODE":251.2599,"ARG_OF_PERICENTER":88.8135,"MEAN_ANOMALY":220.6259,"EPHEMERIS_TYPE":0,"CLASSIFICATION_TYPE":"U","NORAD_CAT_ID":67806,"ELEMENT_SET_NO":999,"REV_AT_EPOCH":417,"BSTAR":0.0010546429,"MEAN_MOTION_DOT":0.00159608,"MEAN_MOTION_DDOT":0},{"OBJECT_NAME":"STARLINK-36382","OBJECT_ID":"2026-032L","EPOCH":"2026-03-05T22:00:01.999584","MEAN_MOTION":15.75213157,"ECCENTRICITY":0.00015603,"INCLINATION":97.2838,"RA_OF_ASC_NODE":251.2632,"ARG_OF_PERICENTER":108.4376,"MEAN_ANOMALY":212.9852,"EPHEMERIS_TYPE":0,"CLASSIFICATION_TYPE":"U","NORAD_CAT_ID":67807,"ELEMENT_SET_NO":999,"REV_AT_EPOCH":411,"BSTAR":-0.00050132311,"MEAN_MOTION_DOT":-0.00074335,"MEAN_MOTION_DDOT":0},{"OBJECT_NAME":"STARLINK-36811","OBJECT_ID":"2026-032M","EPOCH":"2026-03-05T22:00:01.999584","MEAN_MOTION":15.77399873,"ECCENTRICITY":0.00016817,"INCLINATION":97.2841,"RA_OF_ASC_NODE":251.2874,"ARG_OF_PERICENTER":80.0197,"MEAN_ANOMALY":295.2305,"EPHEMERIS_TYPE":0,"CLASSIFICATION_TYPE":"U","NORAD_CAT_ID":67808,"ELEMENT_SET_NO":999,"REV_AT_EPOCH":417,"BSTAR":-0.012434248,"MEAN_MOTION_DOT":-0.01796708,"MEAN_MOTION_DDOT":0},{"OBJECT_NAME":"STARLINK-36795","OBJECT_ID":"2026-032N","EPOCH":"2026-03-05T22:20:01.931424","MEAN_MOTION":15.75267664,"ECCENTRICITY":0.00014532,"INCLINATION":97.2837,"RA_OF_ASC_NODE":251.2614,"ARG_OF_PERICENTER":53.9416,"MEAN_ANOMALY":306.1984,"EPHEMERIS_TYPE":0,"CLASSIFICATION_TYPE":"U","NORAD_CAT_ID":67809,"ELEMENT_SET_NO":999,"REV_AT_EPOCH":419,"BSTAR":0.0014281847,"MEAN_MOTION_DOT":0.00219186,"MEAN_MOTION_DDOT":0},{"OBJECT_NAME":"STARLINK-36807","OBJECT_ID":"2026-032P","EPOCH":"2026-03-05T22:00:01.999584","MEAN_MOTION":15.75103536,"ECCENTRICITY":0.00019516,"INCLINATION":97.2843,"RA_OF_ASC_NODE":251.2849,"ARG_OF_PERICENTER":95.6669,"MEAN_ANOMALY":275.7716,"EPHEMERIS_TYPE":0,"CLASSIFICATION_TYPE":"U","NORAD_CAT_ID":67810,"ELEMENT_SET_NO":999,"REV_AT_EPOCH":417,"BSTAR":0.0014431498,"MEAN_MOTION_DOT":0.00219942,"MEAN_MOTION_DDOT":0}]
