KUIPER-00279            
1 67795U 26030AH  26064.92766851  .00030920  00000+0  89677-3 0  9990
2 67795  51.8804 237.3499 0006624  36.2433 323.9001 15.35245594  4519
CREW DRAGON 12          
1 67796U 26031A   26064.77024645  .00007682  00000+0  15013-3 0  9995
2 67796  51.6317  91.7338 0008144 160.7168 199.4130 15.48462755555668
STARLINK-36800          
1 67797U 26032A   26064.94539854  .00228879  00000+0  14897-2 0  9990
2 67797  97.2843 251.2430 0001197  82.9382 277.2019 15.75266405  4191
STARLINK-36798          
1 67798U 26032B   26064.91668981 -.00055790  00000+0 -37529-3 0  9992
2 67798  97.2847 251.2514 0001684  83.9118 205.5102 15.75208443  4115
STARLINK-36804          
1 67799U 26032C   26064.94363569  .00257991  00000+0  16729-2 0  9993
2 67799  97.2843 251.2456 0001397  78.9780 281.1643 15.75271106  4191
STARLINK-36354          
1 67800U 26032D   26064.91668981  .00003973  00000+0  27515-4 0  9995
2 67800  97.2847 251.2447 0001767  91.3144 178.1208 15.75173596  4176
STARLINK-36773          
1 67801U 26032E   26064.94045772  .00192900  00000+0  12616-2 0  9999
2 67801  97.2845 251.2494 0001556  48.2169 311.9229 15.75254365  4197
STARLINK-36739          
1 67802U 26032F   26064.91668981  .00031810  00000+0  21366-3 0  9995
2 67802  97.2843 251.2681 0001571 106.3714 223.0557 15.75154978  4177
STARLINK-36768          
1 67803U 26032G   26064.91668981 -.00015622  00000+0 -10411-3 0  9990
2 67803  97.2843 251.2377 0001357  83.1433 176.2936 15.75178192  4176
STARLINK-36792          
1 67804U 26032H   26064.93693262  .00151741  00000+0  99844-3 0  9991
2 67804  97.2844 251.2537 0001376  84.3978 275.7445 15.75231649  4193
STARLINK-36782          
1 67805U 26032J   26064.97979806  .00204674  00000+0  10413-2 0  9995
2 67805  97.2826 251.3486 0002510  71.4121 288.7420 15.80879256  4203
STARLINK-36389          
1 67806U 26032K   26064.91668981  .00159608  00000+0  10546-2 0  9992
2 67806  97.2837 251.2599 0001609  88.8135 220.6259 15.75111244  4176
STARLINK-36382          
1 67807U 26032L   26064.91668981 -.00074335  00000+0 -50132-3 0  9994
2 67807  97.2838 251.2632 0001560 108.4376 212.9852 15.75213157  4111
STARLINK-36811          
1 67808U 26032M   26064.91668981 -.01796708  00000+0 -12434-1 0  9992
2 67808  97.2841 251.2874 0001681  80.0197 295.2305 15.77399873  4179
STARLINK-36795          
1 67809U 26032N   26064.93057791  .00219186  00000+0  14282-2 0  9997
2 67809  97.2837 251.2614 0001453  53.9416 306.1984 15.75267664  4194
STARLINK-36807          
1 67810U 26032P   26064.91668981  .00219942  00000+0  14431-2 0  9992
2 67810  97.2843 251.2849 0001951  95.6669 275.7716 15.75103536  4178
